{
  "type": "FeatureCollection",
  "features": [
    {
      "type": "Feature",
      "properties": {
        "norad_id": 67031,
        "name": "STARLINK-36150",
        "group": "last-30-days",
        "lat": 42.165626178894414,
        "lon": -121.5149948363862,
        "alt_km": 302.8347065681637,
        "timestamp": "2025-12-20T11:30:27.108500+00:00",
        "meta_object_name": "STARLINK-36150",
        "meta_object_id": "2025-294B",
        "meta_epoch": "2025-12-20T04:00:00.999072",
        "meta_mean_motion": 15.88825533,
        "meta_eccentricity": 0.0001729,
        "meta_inclination": 43,
        "meta_ra_of_asc_node": 136.8085,
        "meta_arg_of_pericenter": 272.8899,
        "meta_mean_anomaly": 196.3097,
        "meta_ephemeris_type": 0,
        "meta_classification_type": "U",
        "meta_norad_cat_id": 67031,
        "meta_element_set_no": 999,
        "meta_rev_at_epoch": 150,
        "meta_bstar": -0.0052825,
        "meta_mean_motion_dot": -0.0135937,
        "meta_mean_motion_ddot": 0,
        "tle_line1": "1 67031U 25294B   25354.16667823 -.01359370  00000+0 -52825-2 0  9990",
        "tle_line2": "2 67031  43.0000 136.8085 0001729 272.8899 196.3097 15.88825533  1500"
      },
      "geometry": {
        "type": "Point",
        "coordinates": [
          -121.5149948363862,
          42.165626178894414
        ]
      }
    },
    {
      "type": "Feature",
      "properties": {
        "norad_id": 67032,
        "name": "STARLINK-36131",
        "group": "last-30-days",
        "lat": 41.40077427501488,
        "lon": -116.24731258275034,
        "alt_km": 302.62881242308595,
        "timestamp": "2025-12-20T11:30:27.108510+00:00",
        "meta_object_name": "STARLINK-36131",
        "meta_object_id": "2025-294C",
        "meta_epoch": "2025-12-20T04:00:00.999072",
        "meta_mean_motion": 15.88907171,
        "meta_eccentricity": 0.0001586,
        "meta_inclination": 43.0001,
        "meta_ra_of_asc_node": 136.7986,
        "meta_arg_of_pericenter": 268.757,
        "meta_mean_anomaly": 204.3622,
        "meta_ephemeris_type": 0,
        "meta_classification_type": "U",
        "meta_norad_cat_id": 67032,
        "meta_element_set_no": 999,
        "meta_rev_at_epoch": 131,
        "meta_bstar": -0.0053203,
        "meta_mean_motion_dot": -0.01372755,
        "meta_mean_motion_ddot": 0,
        "tle_line1": "1 67032U 25294C   25354.16667823 -.01372755  00000+0 -53203-2 0  9994",
        "tle_line2": "2 67032  43.0001 136.7986 0001586 268.7570 204.3622 15.88907171  1314"
      },
      "geometry": {
        "type": "Point",
        "coordinates": [
          -116.24731258275034,
          41.40077427501488
        ]
      }
    },
    {
      "type": "Feature",
      "properties": {
        "norad_id": 67033,
        "name": "STARLINK-36137",
        "group": "last-30-days",
        "lat": 41.81816736611315,
        "lon": -118.8989575774789,
        "alt_km": 302.7575674470754,
        "timestamp": "2025-12-20T11:30:27.108520+00:00",
        "meta_object_name": "STARLINK-36137",
        "meta_object_id": "2025-294D",
        "meta_epoch": "2025-12-20T04:00:00.999072",
        "meta_mean_motion": 15.88859802,
        "meta_eccentricity": 0.0001714,
        "meta_inclination": 42.9999,
        "meta_ra_of_asc_node": 136.8039,
        "meta_arg_of_pericenter": 269.654,
        "meta_mean_anomaly": 201.4833,
        "meta_ephemeris_type": 0,
        "meta_classification_type": "U",
        "meta_norad_cat_id": 67033,
        "meta_element_set_no": 999,
        "meta_rev_at_epoch": 131,
        "meta_bstar": -0.0052589,
        "meta_mean_motion_dot": -0.01356103,
        "meta_mean_motion_ddot": 0,
        "tle_line1": "1 67033U 25294D   25354.16667823 -.01356103  00000+0 -52589-2 0  9990",
        "tle_line2": "2 67033  42.9999 136.8039 0001714 269.6540 201.4833 15.88859802  1318"
      },
      "geometry": {
        "type": "Point",
        "coordinates": [
          -118.8989575774789,
          41.81816736611315
        ]
      }
    },
    {
      "type": "Feature",
      "properties": {
        "norad_id": 67034,
        "name": "STARLINK-36140",
        "group": "last-30-days",
        "lat": 40.87123125104272,
        "lon": -113.36965789870092,
        "alt_km": 302.60539292096837,
        "timestamp": "2025-12-20T11:30:27.108529+00:00",
        "meta_object_name": "STARLINK-36140",
        "meta_object_id": "2025-294E",
        "meta_epoch": "2025-12-19T22:00:01.999584",
        "meta_mean_motion": 15.89660762,
        "meta_eccentricity": 0.00015583,
        "meta_inclination": 42.9996,
        "meta_ra_of_asc_node": 138.3444,
        "meta_arg_of_pericenter": 275.1183,
        "meta_mean_anomaly": 208.1015,
        "meta_ephemeris_type": 0,
        "meta_classification_type": "U",
        "meta_norad_cat_id": 67034,
        "meta_element_set_no": 999,
        "meta_rev_at_epoch": 130,
        "meta_bstar": -0.0049092554,
        "meta_mean_motion_dot": -0.01323275,
        "meta_mean_motion_ddot": 0,
        "tle_line1": "1 67034U 25294E   25353.91668981 -.01323275  00000+0 -49093-2 0  9999",
        "tle_line2": "2 67034  42.9996 138.3444 0001558 275.1183 208.1015 15.89660762  1305"
      },
      "geometry": {
        "type": "Point",
        "coordinates": [
          -113.36965789870092,
          40.87123125104272
        ]
      }
    },
    {
      "type": "Feature",
      "properties": {
        "norad_id": 67035,
        "name": "STARLINK-36085",
        "group": "last-30-days",
        "lat": 39.604954878256365,
        "lon": -107.77024549269927,
        "alt_km": 302.6114226696718,
        "timestamp": "2025-12-20T11:30:27.108539+00:00",
        "meta_object_name": "STARLINK-36085",
        "meta_object_id": "2025-294F",
        "meta_epoch": "2025-12-20T04:00:00.999072",
        "meta_mean_motion": 15.8902458,
        "meta_eccentricity": 0.0001614,
        "meta_inclination": 43.0003,
        "meta_ra_of_asc_node": 136.782,
        "meta_arg_of_pericenter": 268.5698,
        "meta_mean_anomaly": 211.1214,
        "meta_ephemeris_type": 0,
        "meta_classification_type": "U",
        "meta_norad_cat_id": 67035,
        "meta_element_set_no": 999,
        "meta_rev_at_epoch": 131,
        "meta_bstar": -0.0053953,
        "meta_mean_motion_dot": -0.01396938,
        "meta_mean_motion_ddot": 0,
        "tle_line1": "1 67035U 25294F   25354.16667823 -.01396938  00000+0 -53953-2 0  9998",
        "tle_line2": "2 67035  43.0003 136.7820 0001614 268.5698 211.1214 15.89024580  1315"
      },
      "geometry": {
        "type": "Point",
        "coordinates": [
          -107.77024549269927,
          39.604954878256365
        ]
      }
    },
    {
      "type": "Feature",
      "properties": {
        "norad_id": 67036,
        "name": "STARLINK-36125",
        "group": "last-30-days",
        "lat": 40.27697086662546,
        "lon": -110.56624867919605,
        "alt_km": 302.634057938737,
        "timestamp": "2025-12-20T11:30:27.108549+00:00",
        "meta_object_name": "STARLINK-36125",
        "meta_object_id": "2025-294G",
        "meta_epoch": "2025-12-20T04:00:00.999072",
        "meta_mean_motion": 15.88979916,
        "meta_eccentricity": 0.0001686,
        "meta_inclination": 43,
        "meta_ra_of_asc_node": 136.7878,
        "meta_arg_of_pericenter": 265.0082,
        "meta_mean_anomaly": 212.4808,
        "meta_ephemeris_type": 0,
        "meta_classification_type": "U",
        "meta_norad_cat_id": 67036,
        "meta_element_set_no": 999,
        "meta_rev_at_epoch": 150,
        "meta_bstar": -0.0053505,
        "meta_mean_motion_dot": -0.0138412,
        "meta_mean_motion_ddot": 0,
        "tle_line1": "1 67036U 25294G   25354.16667823 -.01384120  00000+0 -53505-2 0  9992",
        "tle_line2": "2 67036  43.0000 136.7878 0001686 265.0082 212.4808 15.88979916  1509"
      },
      "geometry": {
        "type": "Point",
        "coordinates": [
          -110.56624867919605,
          40.27697086662546
        ]
      }
    },
    {
      "type": "Feature",
      "properties": {
        "norad_id": 67037,
        "name": "STARLINK-35732",
        "group": "last-30-days",
        "lat": 38.81025474037965,
        "lon": -104.83330565410927,
        "alt_km": 302.62654640829624,
        "timestamp": "2025-12-20T11:30:27.108561+00:00",
        "meta_object_name": "STARLINK-35732",
        "meta_object_id": "2025-294H",
        "meta_epoch": "2025-12-20T04:00:00.999072",
        "meta_mean_motion": 15.89058435,
        "meta_eccentricity": 0.0001615,
        "meta_inclination": 43,
        "meta_ra_of_asc_node": 136.7764,
        "meta_arg_of_pericenter": 268.2643,
        "meta_mean_anomaly": 213.8021,
        "meta_ephemeris_type": 0,
        "meta_classification_type": "U",
        "meta_norad_cat_id": 67037,
        "meta_element_set_no": 999,
        "meta_rev_at_epoch": 142,
        "meta_bstar": -0.0053981,
        "meta_mean_motion_dot": -0.01399693,
        "meta_mean_motion_ddot": 0,
        "tle_line1": "1 67037U 25294H   25354.16667823 -.01399693  00000+0 -53981-2 0  9992",
        "tle_line2": "2 67037  43.0000 136.7764 0001615 268.2643 213.8021 15.89058435  1422"
      },
      "geometry": {
        "type": "Point",
        "coordinates": [
          -104.83330565410927,
          38.81025474037965
        ]
      }
    }
  ]
}